{
  "type": "FeatureCollection",
  "features": [
    {
      "type": "Feature",
      "properties": {
        "norad_id": 33886,
        "name": "IRIDIUM 33 DEB",
        "group": "iridium-33-debris",
        "lat": -58.810515068288524,
        "lon": 60.15658811643298,
        "alt_km": 775.4719617669971,
        "timestamp": "2025-12-15T07:02:37.999885+00:00",
        "meta_object_name": "IRIDIUM 33 DEB",
        "meta_object_id": "1997-051BF",
        "meta_epoch": "2025-12-14T16:47:35.123712",
        "meta_mean_motion": 14.36054475,
        "meta_eccentricity": 0.00124398,
        "meta_inclination": 86.3831,
        "meta_ra_of_asc_node": 66.4039,
        "meta_arg_of_pericenter": 234.6873,
        "meta_mean_anomaly": 238.451,
        "meta_ephemeris_type": 0,
        "meta_classification_type": "U",
        "meta_norad_cat_id": 33886,
        "meta_element_set_no": 999,
        "meta_rev_at_epoch": 88080,
        "meta_bstar": 0.00022824918,
        "meta_mean_motion_dot": 6.83e-06,
        "meta_mean_motion_ddot": 0,
        "tle_line1": "1 33886U 97051BF  25348.69971208  .00000683  00000+0  22825-3 0  9992",
        "tle_line2": "2 33886  86.3831  66.4039 0012439 234.6873 238.4510 14.36054475880805"
      },
      "geometry": {
        "type": "Point",
        "coordinates": [
          60.15658811643298,
          -58.810515068288524
        ]
      }
    },
    {
      "type": "Feature",
      "properties": {
        "norad_id": 33887,
        "name": "IRIDIUM 33 DEB",
        "group": "iridium-33-debris",
        "lat": -67.70673224990729,
        "lon": -168.63816643196117,
        "alt_km": 772.2246492857266,
        "timestamp": "2025-12-15T07:02:37.999896+00:00",
        "meta_object_name": "IRIDIUM 33 DEB",
        "meta_object_id": "1997-051BG",
        "meta_epoch": "2025-12-14T19:01:16.152384",
        "meta_mean_motion": 14.37222878,
        "meta_eccentricity": 0.00046235,
        "meta_inclination": 86.3044,
        "meta_ra_of_asc_node": 2.5076,
        "meta_arg_of_pericenter": 217.7638,
        "meta_mean_anomaly": 319.8972,
        "meta_ephemeris_type": 0,
        "meta_classification_type": "U",
        "meta_norad_cat_id": 33887,
        "meta_element_set_no": 999,
        "meta_rev_at_epoch": 88194,
        "meta_bstar": 0.0001690057,
        "meta_mean_motion_dot": 5.23e-06,
        "meta_mean_motion_ddot": 0,
        "tle_line1": "1 33887U 97051BG  25348.79254806  .00000523  00000+0  16901-3 0  9993",
        "tle_line2": "2 33887  86.3044   2.5076 0004623 217.7638 319.8972 14.37222878881948"
      },
      "geometry": {
        "type": "Point",
        "coordinates": [
          -168.63816643196117,
          -67.70673224990729
        ]
      }
    },
    {
      "type": "Feature",
      "properties": {
        "norad_id": 33953,
        "name": "IRIDIUM 33 DEB",
        "group": "iridium-33-debris",
        "lat": -86.37657588330347,
        "lon": -40.589647282907535,
        "alt_km": 728.5788049898474,
        "timestamp": "2025-12-15T07:02:37.999907+00:00",
        "meta_object_name": "IRIDIUM 33 DEB",
        "meta_object_id": "1997-051BN",
        "meta_epoch": "2025-12-14T22:21:56.916000",
        "meta_mean_motion": 14.55350804,
        "meta_eccentricity": 0.00182766,
        "meta_inclination": 86.3848,
        "meta_ra_of_asc_node": 52.8279,
        "meta_arg_of_pericenter": 96.2231,
        "meta_mean_anomaly": 80.3232,
        "meta_ephemeris_type": 0,
        "meta_classification_type": "U",
        "meta_norad_cat_id": 33953,
        "meta_element_set_no": 999,
        "meta_rev_at_epoch": 88335,
        "meta_bstar": 0.00077859673,
        "meta_mean_motion_dot": 3.405e-05,
        "meta_mean_motion_ddot": 0,
        "tle_line1": "1 33953U 97051BN  25348.93190875  .00003405  00000+0  77860-3 0  9991",
        "tle_line2": "2 33953  86.3848  52.8279 0018276  96.2231  80.3232 14.55350804883352"
      },
      "geometry": {
        "type": "Point",
        "coordinates": [
          -40.589647282907535,
          -86.37657588330347
        ]
      }
    },
    {
      "type": "Feature",
      "properties": {
        "norad_id": 33960,
        "name": "IRIDIUM 33 DEB",
        "group": "iridium-33-debris",
        "lat": -11.340850882088134,
        "lon": -72.44308726180175,
        "alt_km": 615.0273908669142,
        "timestamp": "2025-12-15T07:02:37.999917+00:00",
        "meta_object_name": "IRIDIUM 33 DEB",
        "meta_object_id": "1997-051BV",
        "meta_epoch": "2025-12-14T14:06:04.377888",
        "meta_mean_motion": 14.85312207,
        "meta_eccentricity": 0.00075249,
        "meta_inclination": 86.2524,
        "meta_ra_of_asc_node": 288.6431,
        "meta_arg_of_pericenter": 59.4902,
        "meta_mean_anomaly": 117.0305,
        "meta_ephemeris_type": 0,
        "meta_classification_type": "U",
        "meta_norad_cat_id": 33960,
        "meta_element_set_no": 999,
        "meta_rev_at_epoch": 88894,
        "meta_bstar": 0.0024750615,
        "meta_mean_motion_dot": 0.00021341,
        "meta_mean_motion_ddot": 0,
        "tle_line1": "1 33960U 97051BV  25348.58755067  .00021341  00000+0  24751-2 0  9999",
        "tle_line2": "2 33960  86.2524 288.6431 0007524  59.4902 117.0305 14.85312207888946"
      },
      "geometry": {
        "type": "Point",
        "coordinates": [
          -72.44308726180175,
          -11.340850882088134
        ]
      }
    },
    {
      "type": "Feature",
      "properties": {
        "norad_id": 33966,
        "name": "IRIDIUM 33 DEB",
        "group": "iridium-33-debris",
        "lat": -16.96312775348033,
        "lon": 43.82899621474601,
        "alt_km": 737.1707713699234,
        "timestamp": "2025-12-15T07:02:37.999928+00:00",
        "meta_object_name": "IRIDIUM 33 DEB",
        "meta_object_id": "1997-051CB",
        "meta_epoch": "2025-12-14T22:00:02.792736",
        "meta_mean_motion": 14.49603787,
        "meta_eccentricity": 0.00076878,
        "meta_inclination": 86.3927,
        "meta_ra_of_asc_node": 45.0932,
        "meta_arg_of_pericenter": 180.8005,
        "meta_mean_anomaly": 357.2153,
        "meta_ephemeris_type": 0,
        "meta_classification_type": "U",
        "meta_norad_cat_id": 33966,
        "meta_element_set_no": 999,
        "meta_rev_at_epoch": 88473,
        "meta_bstar": 0.00045591516,
        "meta_mean_motion_dot": 1.77e-05,
        "meta_mean_motion_ddot": 0,
        "tle_line1": "1 33966U 97051CB  25348.91669899  .00001770  00000+0  45592-3 0  9990",
        "tle_line2": "2 33966  86.3927  45.0932 0007687 180.8005 357.2153 14.49603787884732"
      },
      "geometry": {
        "type": "Point",
        "coordinates": [
          43.82899621474601,
          -16.96312775348033
        ]
      }
    },
    {
      "type": "Feature",
      "properties": {
        "norad_id": 34071,
        "name": "IRIDIUM 33 DEB",
        "group": "iridium-33-debris",
        "lat": 48.005696054416596,
        "lon": 20.789454179310024,
        "alt_km": 718.8123111231853,
        "timestamp": "2025-12-15T07:02:37.999938+00:00",
        "meta_object_name": "IRIDIUM 33 DEB",
        "meta_object_id": "1997-051CE",
        "meta_epoch": "2025-12-14T19:13:29.446464",
        "meta_mean_motion": 14.49475642,
        "meta_eccentricity": 0.00099741,
        "meta_inclination": 86.3459,
        "meta_ra_of_asc_node": 16.9327,
        "meta_arg_of_pericenter": 102.0992,
        "meta_mean_anomaly": 258.133,
        "meta_ephemeris_type": 0,
        "meta_classification_type": "U",
        "meta_norad_cat_id": 34071,
        "meta_element_set_no": 999,
        "meta_rev_at_epoch": 88364,
        "meta_bstar": 0.00060515651,
        "meta_mean_motion_dot": 2.338e-05,
        "meta_mean_motion_ddot": 0,
        "tle_line1": "1 34071U 97051CE  25348.80103526  .00002338  00000+0  60516-3 0  9990",
        "tle_line2": "2 34071  86.3459  16.9327 0009974 102.0992 258.1330 14.49475642883649"
      },
      "geometry": {
        "type": "Point",
        "coordinates": [
          20.789454179310024,
          48.005696054416596
        ]
      }
    },
    {
      "type": "Feature",
      "properties": {
        "norad_id": 34077,
        "name": "IRIDIUM 33 DEB",
        "group": "iridium-33-debris",
        "lat": 31.75129693850917,
        "lon": 52.62376010344016,
        "alt_km": 668.7363037660643,
        "timestamp": "2025-12-15T07:02:37.999948+00:00",
        "meta_object_name": "IRIDIUM 33 DEB",
        "meta_object_id": "1997-051CL",
        "meta_epoch": "2025-12-14T16:44:01.605120",
        "meta_mean_motion": 14.64865872,
        "meta_eccentricity": 0.00099869,
        "meta_inclination": 86.3862,
        "meta_ra_of_asc_node": 50.6449,
        "meta_arg_of_pericenter": 33.0719,
        "meta_mean_anomaly": 96.5251,
        "meta_ephemeris_type": 0,
        "meta_classification_type": "U",
        "meta_norad_cat_id": 34077,
        "meta_element_set_no": 999,
        "meta_rev_at_epoch": 88361,
        "meta_bstar": 0.00085055153,
        "meta_mean_motion_dot": 4.567e-05,
        "meta_mean_motion_ddot": 0,
        "tle_line1": "1 34077U 97051CL  25348.69724080  .00004567  00000+0  85055-3 0  9998",
        "tle_line2": "2 34077  86.3862  50.6449 0009986  33.0719  96.5251 14.64865872883614"
      },
      "geometry": {
        "type": "Point",
        "coordinates": [
          52.62376010344016,
          31.75129693850917
        ]
      }
    }
  ]
}